{
    "links": {
        "self": "http://www.neowsapp.com/rest/v1/neo/54049900?api_key=iIulBulltgU6a56xZRHN4H3l9WmuAYTsLGpBGhQ2"
    },
    "id": "54049900",
    "neo_reference_id": "54049900",
    "name": "(2020 PH)",
    "designation": "2020 PH",
    "nasa_jpl_url": "http://ssd.jpl.nasa.gov/sbdb.cgi?sstr=54049900",
    "absolute_magnitude_h": 20.044,
    "estimated_diameter": {
        "kilometers": {
            "estimated_diameter_min": 0.2604683606,
            "estimated_diameter_max": 0.5824249603
        },
        "meters": {
            "estimated_diameter_min": 260.4683606192,
            "estimated_diameter_max": 582.4249603325
        },
        "miles": {
            "estimated_diameter_min": 0.1618474857,
            "estimated_diameter_max": 0.36190198
        },
        "feet": {
            "estimated_diameter_min": 854.5550162539,
            "estimated_diameter_max": 1910.8431068572
        }
    },
    "is_potentially_hazardous_asteroid": false,
    "close_approach_data": [
        {
            "close_approach_date": "2005-04-02",
            "close_approach_date_full": "2005-Apr-02 06:33",
            "epoch_date_close_approach": 1112423580000,
            "relative_velocity": {
                "kilometers_per_second": "34.6727796641",
                "kilometers_per_hour": "124822.0067906873",
                "miles_per_hour": "77559.5408305801"
            },
            "miss_distance": {
                "astronomical": "0.3740168119",
                "lunar": "145.4925398291",
                "kilometers": "55952118.404430653",
                "miles": "34767034.2077148914"
            },
            "orbiting_body": "Earth"
        },
        {
            "close_approach_date": "2006-12-28",
            "close_approach_date_full": "2006-Dec-28 18:07",
            "epoch_date_close_approach": 1167329220000,
            "relative_velocity": {
                "kilometers_per_second": "8.4381020276",
                "kilometers_per_hour": "30377.1672995062",
                "miles_per_hour": "18875.1904256293"
            },
            "miss_distance": {
                "astronomical": "1.848608048",
                "lunar": "719.108530672",
                "kilometers": "276547826.44565776",
                "miles": "171838851.079926688"
            },
            "orbiting_body": "Juptr"
        },
        {
            "close_approach_date": "2019-03-19",
            "close_approach_date_full": "2019-Mar-19 03:57",
            "epoch_date_close_approach": 1552967820000,
            "relative_velocity": {
                "kilometers_per_second": "7.0653108559",
                "kilometers_per_hour": "25435.1190813596",
                "miles_per_hour": "15804.393853637"
            },
            "miss_distance": {
                "astronomical": "1.4508426244",
                "lunar": "564.3777808916",
                "kilometers": "217042966.315450028",
                "miles": "134864245.5302572664"
            },
            "orbiting_body": "Juptr"
        },
        {
            "close_approach_date": "2020-08-15",
            "close_approach_date_full": "2020-Aug-15 15:52",
            "epoch_date_close_approach": 1597506720000,
            "relative_velocity": {
                "kilometers_per_second": "23.4497502065",
                "kilometers_per_hour": "84419.10074353",
                "miles_per_hour": "52454.7462370006"
            },
            "miss_distance": {
                "astronomical": "0.3096208218",
                "lunar": "120.4424996802",
                "kilometers": "46318615.448929566",
                "miles": "28781053.0448013708"
            },
            "orbiting_body": "Earth"
        },
        {
            "close_approach_date": "2030-03-20",
            "close_approach_date_full": "2030-Mar-20 09:43",
            "epoch_date_close_approach": 1900230180000,
            "relative_velocity": {
                "kilometers_per_second": "26.6064278783",
                "kilometers_per_hour": "95783.1403618483",
                "miles_per_hour": "59515.9185209496"
            },
            "miss_distance": {
                "astronomical": "0.2922049168",
                "lunar": "113.6677126352",
                "kilometers": "43713233.156807216",
                "miles": "27162143.5583069408"
            },
            "orbiting_body": "Earth"
        }
    ],
    "orbital_data": {
        "orbit_id": "6",
        "orbit_determination_date": "2020-10-26 09:35:26",
        "first_observation_date": "2020-06-20",
        "last_observation_date": "2020-08-11",
        "data_arc_in_days": 52,
        "observations_used": 62,
        "orbit_uncertainty": "7",
        "minimum_orbit_intersection": ".27473",
        "jupiter_tisserand_invariant": "3.131",
        "epoch_osculation": "2459000.5",
        "eccentricity": ".8226055692228308",
        "semi_major_axis": "2.135053638081064",
        "inclination": "17.61433197052833",
        "ascending_node_longitude": "254.1171887554993",
        "orbital_period": "1139.492869870967",
        "perihelion_distance": ".3787466248061145",
        "perihelion_argument": "175.3847002573507",
        "aphelion_distance": "3.891360651356013",
        "perihelion_time": "2459122.483570591814",
        "mean_anomaly": "321.4617286565156",
        "mean_motion": ".3159300154644807",
        "equinox": "J2000",
        "orbit_class": {
            "orbit_class_type": "APO",
            "orbit_class_description": "Near-Earth asteroid orbits which cross the Earth’s orbit similar to that of 1862 Apollo",
            "orbit_class_range": "a (semi-major axis) > 1.0 AU; q (perihelion) < 1.017 AU"
        }
    },
    "is_sentry_object": false
}